start=new Date('2022-04-30T00:00:00.000Z').valueOf();
sats=[{"COUNTRY_CODE":"US","OBJECT_ID":"2020-055N","REF_FRAME":"TEME","ECCENTRICITY":"0.00012700","BSTAR":"-0.00011770000000","EPOCH":"2022-04-29T21:06:05.858208","FILE":"3421985","SITE":"AFETR","TLE_LINE2":"2 46039  53.0531 335.5139 0001270  79.9811 280.1321 15.06392874 96394","PERIOD":"95.593","MEAN_MOTION_DDOT":"0.0000000000000","INCLINATION":"53.0531","MEAN_MOTION":"15.06392874","DECAY_DATE":null,"NORAD_CAT_ID":"46039","CENTER_NAME":"EARTH","RCS_SIZE":"LARGE","APOAPSIS":"548.115","MEAN_MOTION_DOT":"-0.00002034","TLE_LINE1":"1 46039U 20055N   22119.87923447 -.00002034  00000-0 -11770-3 0  9993","MEAN_ANOMALY":"280.1321","ELEMENT_SET_NO":"999","REV_AT_EPOCH":"9639","EPHEMERIS_TYPE":"0","TIME_SYSTEM":"UTC","OBJECT_TYPE":"PAYLOAD","RA_OF_ASC_NODE":"335.5139","MEAN_ELEMENT_THEORY":"SGP4","OBJECT_NAME":"STARLINK-1569","LAUNCH_DATE":"2020-08-07","CLASSIFICATION_TYPE":"U","ARG_OF_PERICENTER":"79.9811","PERIAPSIS":"546.356","SEMIMAJOR_AXIS":"6925.370","GP_ID":"202308012"},{"OBJECT_ID":"2020-055P","COUNTRY_CODE":"US","BSTAR":"-0.00005912000000","EPOCH":"2022-04-29T21:48:33.954912","ECCENTRICITY":"0.00013860","REF_FRAME":"TEME","FILE":"3421985","MEAN_MOTION_DDOT":"0.0000000000000","PERIOD":"95.593","TLE_LINE2":"2 46040  53.0539 335.3736 0001386  83.6276 276.4870 15.06390238 96366","SITE":"AFETR","MEAN_MOTION":"15.06390238","INCLINATION":"53.0539","DECAY_DATE":null,"NORAD_CAT_ID":"46040","APOAPSIS":"548.203","RCS_SIZE":"LARGE","CENTER_NAME":"EARTH","TLE_LINE1":"1 46040U 20055P   22119.90872633 -.00001162  00000-0 -59120-4 0  9992","MEAN_MOTION_DOT":"-0.00001162","ELEMENT_SET_NO":"999","MEAN_ANOMALY":"276.4870","EPHEMERIS_TYPE":"0","TIME_SYSTEM":"UTC","REV_AT_EPOCH":"9636","OBJECT_TYPE":"PAYLOAD","RA_OF_ASC_NODE":"335.3736","CLASSIFICATION_TYPE":"U","OBJECT_NAME":"STARLINK-1576","LAUNCH_DATE":"2020-08-07","MEAN_ELEMENT_THEORY":"SGP4","PERIAPSIS":"546.284","ARG_OF_PERICENTER":"83.6276","SEMIMAJOR_AXIS":"6925.378","GP_ID":"202308764"},{"EPHEMERIS_TYPE":"0","TIME_SYSTEM":"UTC","REV_AT_EPOCH":"9588","ELEMENT_SET_NO":"999","MEAN_ANOMALY":"265.8614","OBJECT_TYPE":"PAYLOAD","RA_OF_ASC_NODE":"335.6607","CLASSIFICATION_TYPE":"U","OBJECT_NAME":"STARLINK-1580","LAUNCH_DATE":"2020-08-07","MEAN_ELEMENT_THEORY":"SGP4","GP_ID":"202282957","SEMIMAJOR_AXIS":"6925.378","PERIAPSIS":"546.158","ARG_OF_PERICENTER":"94.2555","BSTAR":"0.00000078813000","EPOCH":"2022-04-29T20:16:58.736064","ECCENTRICITY":"0.00015670","REF_FRAME":"TEME","OBJECT_ID":"2020-055Q","COUNTRY_CODE":"US","MEAN_MOTION_DDOT":"0.0000000000000","PERIOD":"95.593","TLE_LINE2":"2 46041  53.0552 335.6607 0001567  94.2555 265.8614 15.06390329 95886","SITE":"AFETR","FILE":"3421721","DECAY_DATE":null,"NORAD_CAT_ID":"46041","MEAN_MOTION":"15.06390329","INCLINATION":"53.0552","TLE_LINE1":"1 46041U 20055Q   22119.84512426 -.00000270  00000-0  78813-6 0  9997","MEAN_MOTION_DOT":"-0.00000270","APOAPSIS":"548.328","CENTER_NAME":"EARTH","RCS_SIZE":"LARGE"},{"MEAN_MOTION_DOT":"-0.00000034","TLE_LINE1":"1 46042U 20055R   22119.89398412 -.00000034  00000-0  16604-4 0  9996","RCS_SIZE":"LARGE","CENTER_NAME":"EARTH","APOAPSIS":"548.288","DECAY_DATE":null,"NORAD_CAT_ID":"46042","INCLINATION":"53.0554","MEAN_MOTION":"15.06390757","SITE":"AFETR","TLE_LINE2":"2 46042  53.0554 335.4393 0001511  80.9581 279.1579 15.06390757 96366","PERIOD":"95.593","MEAN_MOTION_DDOT":"0.0000000000000","FILE":"3421985","REF_FRAME":"TEME","ECCENTRICITY":"0.00015110","BSTAR":"0.00001660400000","EPOCH":"2022-04-29T21:27:20.227968","COUNTRY_CODE":"US","OBJECT_ID":"2020-055R","SEMIMAJOR_AXIS":"6925.377","GP_ID":"202307269","ARG_OF_PERICENTER":"80.9581","PERIAPSIS":"546.195","MEAN_ELEMENT_THEORY":"SGP4","OBJECT_NAME":"STARLINK-1581","LAUNCH_DATE":"2020-08-07","CLASSIFICATION_TYPE":"U","RA_OF_ASC_NODE":"335.4393","OBJECT_TYPE":"PAYLOAD","REV_AT_EPOCH":"9636","EPHEMERIS_TYPE":"0","TIME_SYSTEM":"UTC","MEAN_ANOMALY":"279.1579","ELEMENT_SET_NO":"999"},{"SEMIMAJOR_AXIS":"6925.366","GP_ID":"202282685","PERIAPSIS":"546.105","ARG_OF_PERICENTER":"78.2533","CLASSIFICATION_TYPE":"U","LAUNCH_DATE":"2020-08-07","OBJECT_NAME":"STARLINK-1582","MEAN_ELEMENT_THEORY":"SGP4","OBJECT_TYPE":"PAYLOAD","RA_OF_ASC_NODE":"335.4884","EPHEMERIS_TYPE":"0","TIME_SYSTEM":"UTC","REV_AT_EPOCH":"9588","ELEMENT_SET_NO":"999","MEAN_ANOMALY":"281.8638","TLE_LINE1":"1 46043U 20055S   22119.88660590 -.00003240  00000-0 -19872-3 0  9997","MEAN_MOTION_DOT":"-0.00003240","APOAPSIS":"548.356","RCS_SIZE":"LARGE","CENTER_NAME":"EARTH","DECAY_DATE":null,"NORAD_CAT_ID":"46043","MEAN_MOTION":"15.06394411","INCLINATION":"53.0545","MEAN_MOTION_DDOT":"0.0000000000000","PERIOD":"95.592","TLE_LINE2":"2 46043  53.0545 335.4884 0001625  78.2533 281.8638 15.06394411 95888","SITE":"AFETR","FILE":"3421722","EPOCH":"2022-04-29T21:16:42.749760","BSTAR":"-0.00019872000000","ECCENTRICITY":"0.00016250","REF_FRAME":"TEME","OBJECT_ID":"2020-055S","COUNTRY_CODE":"US"},{"RA_OF_ASC_NODE":"335.4024","OBJECT_TYPE":"PAYLOAD","REV_AT_EPOCH":"9640","EPHEMERIS_TYPE":"0","TIME_SYSTEM":"UTC","MEAN_ANOMALY":"269.6694","ELEMENT_SET_NO":"999","GP_ID":"202308271","SEMIMAJOR_AXIS":"6925.364","ARG_OF_PERICENTER":"90.4450","PERIAPSIS":"546.295","MEAN_ELEMENT_THEORY":"SGP4","LAUNCH_DATE":"2020-08-07","OBJECT_NAME":"STARLINK-1584","CLASSIFICATION_TYPE":"U","TLE_LINE2":"2 46044  53.0551 335.4024 0001349  90.4450 269.6694 15.06394819 96406","SITE":"AFETR","PERIOD":"95.592","MEAN_MOTION_DDOT":"0.0000000000000","FILE":"3421985","REF_FRAME":"TEME","ECCENTRICITY":"0.00013490","BSTAR":"-0.00016631000000","EPOCH":"2022-04-29T21:37:56.638272","COUNTRY_CODE":"US","OBJECT_ID":"2020-055T","MEAN_MOTION_DOT":"-0.00002757","TLE_LINE1":"1 46044U 20055T   22119.90134998 -.00002757  00000-0 -16631-3 0  9991","RCS_SIZE":"LARGE","CENTER_NAME":"EARTH","APOAPSIS":"548.164","NORAD_CAT_ID":"46044","DECAY_DATE":null,"INCLINATION":"53.0551","MEAN_MOTION":"15.06394819"},{"REV_AT_EPOCH":"9588","EPHEMERIS_TYPE":"0","TIME_SYSTEM":"UTC","MEAN_ANOMALY":"289.2906","ELEMENT_SET_NO":"999","OBJECT_TYPE":"PAYLOAD","RA_OF_ASC_NODE":"335.6510","MEAN_ELEMENT_THEORY":"SGP4","LAUNCH_DATE":"2020-08-07","OBJECT_NAME":"STARLINK-1591","CLASSIFICATION_TYPE":"U","SEMIMAJOR_AXIS":"6925.383","GP_ID":"202282689","ARG_OF_PERICENTER":"70.8251","PERIAPSIS":"546.169","REF_FRAME":"TEME","ECCENTRICITY":"0.00015580","EPOCH":"2022-04-29T20:18:20.086848","BSTAR":"-0.00021582000000","COUNTRY_CODE":"US","OBJECT_ID":"2020-055U","TLE_LINE2":"2 46045  53.0549 335.6510 0001558  70.8251 289.2906 15.06388787 95881","SITE":"AFETR","PERIOD":"95.593","MEAN_MOTION_DDOT":"0.0000000000000","FILE":"3421723","DECAY_DATE":null,"NORAD_CAT_ID":"46045","INCLINATION":"53.0549","MEAN_MOTION":"15.06388787","MEAN_MOTION_DOT":"-0.00003494","TLE_LINE1":"1 46045U 20055U   22119.84606582 -.00003494  00000-0 -21582-3 0  9998","CENTER_NAME":"EARTH","RCS_SIZE":"LARGE","APOAPSIS":"548.327"},{"PERIAPSIS":"352.638","ARG_OF_PERICENTER":"346.0954","SEMIMAJOR_AXIS":"6734.054","GP_ID":"202307763","CLASSIFICATION_TYPE":"U","MEAN_ELEMENT_THEORY":"SGP4","OBJECT_NAME":"STARLINK-1514","LAUNCH_DATE":"2020-08-07","OBJECT_TYPE":"PAYLOAD","RA_OF_ASC_NODE":"245.3934","ELEMENT_SET_NO":"999","MEAN_ANOMALY":"13.9928","EPHEMERIS_TYPE":"0","TIME_SYSTEM":"UTC","REV_AT_EPOCH":"9763","APOAPSIS":"359.199","CENTER_NAME":"EARTH","RCS_SIZE":"LARGE","MEAN_MOTION_DOT":"0.00131109","TLE_LINE1":"1 46046U 20055V   22119.84901301  .00131109  00000-0  10117-2 0  9990","MEAN_MOTION":"15.71042422","INCLINATION":"53.0504","DECAY_DATE":null,"NORAD_CAT_ID":"46046","FILE":"3421985","MEAN_MOTION_DDOT":"0.0000000000000","SITE":"AFETR","TLE_LINE2":"2 46046  53.0504 245.3934 0004872 346.0954  13.9928 15.71042422 97636","PERIOD":"91.659","COUNTRY_CODE":"US","OBJECT_ID":"2020-055V","EPOCH":"2022-04-29T20:22:34.724064","BSTAR":"0.00101170000000","REF_FRAME":"TEME","ECCENTRICITY":"0.00048720"},{"RA_OF_ASC_NODE":"325.5680","OBJECT_TYPE":"PAYLOAD","ELEMENT_SET_NO":"999","MEAN_ANOMALY":"270.7692","EPHEMERIS_TYPE":"0","TIME_SYSTEM":"UTC","REV_AT_EPOCH":"9653","PERIAPSIS":"546.254","ARG_OF_PERICENTER":"89.3460","SEMIMAJOR_AXIS":"6925.373","GP_ID":"202308013","CLASSIFICATION_TYPE":"U","MEAN_ELEMENT_THEORY":"SGP4","OBJECT_NAME":"STARLINK-1524","LAUNCH_DATE":"2020-08-07","FILE":"3421985","MEAN_MOTION_DDOT":"0.0000000000000","TLE_LINE2":"2 46047  53.0527 325.5680 0001421  89.3460 270.7692 15.06391875 96533","SITE":"AFETR","PERIOD":"95.593","COUNTRY_CODE":"US","OBJECT_ID":"2020-055W","BSTAR":"-0.00019982000000","EPOCH":"2022-04-29T20:46:11.710848","REF_FRAME":"TEME","ECCENTRICITY":"0.00014210","APOAPSIS":"548.223","RCS_SIZE":"LARGE","CENTER_NAME":"EARTH","MEAN_MOTION_DOT":"-0.00003256","TLE_LINE1":"1 46047U 20055W   22119.86541332 -.00003256  00000-0 -19982-3 0  9990","MEAN_MOTION":"15.06391875","INCLINATION":"53.0527","NORAD_CAT_ID":"46047","DECAY_DATE":null},{"LAUNCH_DATE":"2020-08-07","OBJECT_NAME":"STARLINK-1527","MEAN_ELEMENT_THEORY":"SGP4","CLASSIFICATION_TYPE":"U","SEMIMAJOR_AXIS":"6925.366","GP_ID":"202308765","ARG_OF_PERICENTER":"74.7758","PERIAPSIS":"546.320","REV_AT_EPOCH":"9651","EPHEMERIS_TYPE":"0","TIME_SYSTEM":"UTC","MEAN_ANOMALY":"285.3376","ELEMENT_SET_NO":"999","OBJECT_TYPE":"PAYLOAD","RA_OF_ASC_NODE":"325.5899","DECAY_DATE":null,"NORAD_CAT_ID":"46048","INCLINATION":"53.0550","MEAN_MOTION":"15.06394355","TLE_LINE1":"1 46048U 20055X   22119.86171841 -.00004720  00000-0 -29820-3 0  9994","MEAN_MOTION_DOT":"-0.00004720","RCS_SIZE":"LARGE","CENTER_NAME":"EARTH","APOAPSIS":"548.142","ECCENTRICITY":"0.00013150","REF_FRAME":"TEME","BSTAR":"-0.00029820000000","EPOCH":"2022-04-29T20:40:52.470624","OBJECT_ID":"2020-055X","COUNTRY_CODE":"US","PERIOD":"95.592","SITE":"AFETR","TLE_LINE2":"2 46048  53.0550 325.5899 0001315  74.7758 285.3376 15.06394355 96517","MEAN_MOTION_DDOT":"0.0000000000000","FILE":"3421985"}];
